COMMENT,ORIGINATOR,NORAD_CAT_ID,OBJECT_NAME,OBJECT_TYPE,CLASSIFICATION_TYPE,INTLDES,EPOCH,EPOCH_MICROSECONDS,MEAN_MOTION,ECCENTRICITY,INCLINATION,RA_OF_ASC_NODE,ARG_OF_PERICENTER,MEAN_ANOMALY,EPHEMERIS_TYPE,ELEMENT_SET_NO,REV_AT_EPOCH,BSTAR,MEAN_MOTION_DOT,MEAN_MOTION_DDOT,FILE,TLE_LINE0,TLE_LINE1,TLE_LINE2,OBJECT_ID,OBJECT_NUMBER,SEMIMAJOR_AXIS,PERIOD,APOGEE,PERIGEE,DECAYED
"GENERATED VIA SPACETRACK.ORG API","18 SPCS","48886","SPACEBEE-102","PAYLOAD","U","21059H","2024-02-07 22:01:27","891552","15.67996571","0.0003822","97.6055","191.2965","280.2868","79.7962","0","999","14575","0.0020816","0.00236278","0","4182370","0 SPACEBEE-102","1 48886U 21059H   24038.91768393  .00236278  00000-0  20816-2 0  9991","2 48886  97.6055 191.2965 0003822 280.2868  79.7962 15.67996571145758","2021-059H","48886","6742.771","91.837","367.213","362.059","0"
"GENERATED VIA SPACETRACK.ORG API","18 SPCS","48886","SPACEBEE-102","PAYLOAD","U","21059H","2024-02-07 23:33:21","702816","15.68025451","0.0003817","97.6055","191.3656","280.1597","79.9232","0","999","14576","0.0020618","0.00234246","0","4182559","0 SPACEBEE-102","1 48886U 21059H   24038.98150119  .00234246  00000-0  20618-2 0  9992","2 48886  97.6055 191.3656 0003817 280.1597  79.9232 15.68025451145762","2021-059H","48886","6742.689","91.835","367.127","361.980","0"
"GENERATED VIA SPACETRACK.ORG API","18 SPCS","48886","SPACEBEE-102","PAYLOAD","U","21059H","2024-02-08 08:44:42","319680","15.68210074","0.0003883","97.6056","191.7812","282.1675","77.915","0","999","14582","0.0020695","0.00236967","0","4182958","0 SPACEBEE-102","1 48886U 21059H   24039.36437870  .00236967  00000-0  20695-2 0  9994","2 48886  97.6056 191.7812 0003883 282.1675  77.9150 15.68210074145824","2021-059H","48886","6742.159","91.824","366.642","361.406","0"
"GENERATED VIA SPACETRACK.ORG API","18 SPCS","48886","SPACEBEE-102","PAYLOAD","U","21059H","2024-02-08 22:31:36","108768","15.684879","0.0003855","97.6053","192.4041","283.5702","76.5129","0","999","14591","0.0022","0.0025534","0","4183231","0 SPACEBEE-102","1 48886U 21059H   24039.93861237  .00255340  00000-0  22000-2 0  9993","2 48886  97.6053 192.4041 0003855 283.5702  76.5129 15.68487900145913","2021-059H","48886","6741.363","91.808","365.827","360.629","0"
"GENERATED VIA SPACETRACK.ORG API","18 SPCS","48886","SPACEBEE-102","PAYLOAD","U","21059H","2024-02-08 22:31:36","108768","15.684879","0.0003855","97.6053","192.4041","283.5702","76.5129","0","999","14591","0.0022","0.0025534","0","4183454","0 SPACEBEE-102","1 48886U 21059H   24039.93861237  .00255340  00000-0  22000-2 0  9993","2 48886  97.6053 192.4041 0003855 283.5702  76.5129 15.68487900145913","2021-059H","48886","6741.363","91.808","365.827","360.629","0"
"GENERATED VIA SPACETRACK.ORG API","18 SPCS","48886","SPACEBEE-102","PAYLOAD","U","21059H","2024-02-09 09:14:38","428800","15.68706881","0.0003835","97.6053","192.8885","283.9487","76.1347","0","999","14598","0.0021039","0.00246093","0","4183826","0 SPACEBEE-102","1 48886U 21059H   24040.38516700  .00246093  00000-0  21039-2 0  9992","2 48886  97.6053 192.8885 0003835 283.9487  76.1347 15.68706881145982","2021-059H","48886","6740.736","91.795","365.186","360.016","0"
"GENERATED VIA SPACETRACK.ORG API","18 SPCS","48886","SPACEBEE-102","PAYLOAD","U","21059H","2024-02-09 09:14:38","428800","15.68706881","0.0003835","97.6053","192.8885","283.9487","76.1347","0","999","14598","0.0021039","0.00246093","0","4184023","0 SPACEBEE-102","1 48886U 21059H   24040.38516700  .00246093  00000-0  21039-2 0  9992","2 48886  97.6053 192.8885 0003835 283.9487  76.1347 15.68706881145982","2021-059H","48886","6740.736","91.795","365.186","360.016","0"
"GENERATED VIA SPACETRACK.ORG API","18 SPCS","48886","SPACEBEE-102","PAYLOAD","U","21059H","2024-02-10 09:44:06","430272","15.69211807","0.000394","97.6061","193.9959","285.7788","74.3038","0","999","14614","0.0020733","0.00247613","0","4184675","0 SPACEBEE-102","1 48886U 21059H   24041.40562998  .00247613  00000-0  20733-2 0  9995","2 48886  97.6061 193.9959 0003940 285.7788  74.3038 15.69211807146142","2021-059H","48886","6739.290","91.766","363.810","358.499","0"
"GENERATED VIA SPACETRACK.ORG API","18 SPCS","48886","SPACEBEE-102","PAYLOAD","U","21059H","2024-02-10 09:44:06","430272","15.69211807","0.000394","97.6061","193.9959","285.7788","74.3038","0","999","14614","0.0020733","0.00247613","0","4184737","0 SPACEBEE-102","1 48886U 21059H   24041.40562998  .00247613  00000-0  20733-2 0  9995","2 48886  97.6061 193.9959 0003940 285.7788  74.3038 15.69211807146142","2021-059H","48886","6739.290","91.766","363.810","358.499","0"
"GENERATED VIA SPACETRACK.ORG API","18 SPCS","48886","SPACEBEE-102","PAYLOAD","U","21059H","2024-02-10 21:58:39","826272","15.69458936","0.0004108","97.6065","194.5504","288.0858","71.9956","0","999","14622","0.002076","0.00250553","0","4185013","0 SPACEBEE-102","1 48886U 21059H   24041.91573873  .00250553  00000-0  20760-2 0  9992","2 48886  97.6065 194.5504 0004108 288.0858  71.9956 15.69458936146227","2021-059H","48886","6738.582","91.751","363.216","357.679","0"
"GENERATED VIA SPACETRACK.ORG API","18 SPCS","48886","SPACEBEE-102","PAYLOAD","U","21059H","2024-02-11 08:41:18","159936","15.69696815","0.0004045","97.6062","195.0351","289.2406","70.8418","0","999","14629","0.0022952","0.00280752","0","4185537","0 SPACEBEE-102","1 48886U 21059H   24042.36201574  .00280752  00000-0  22952-2 0  9997","2 48886  97.6062 195.0351 0004045 289.2406  70.8418 15.69696815146290","2021-059H","48886","6737.901","91.737","362.492","357.041","0"
"GENERATED VIA SPACETRACK.ORG API","18 SPCS","48886","SPACEBEE-102","PAYLOAD","U","21059H","2024-02-11 08:41:18","159936","15.69696815","0.0004045","97.6062","195.0351","289.2406","70.8418","0","999","14629","0.0022952","0.00280752","0","4185591","0 SPACEBEE-102","1 48886U 21059H   24042.36201574  .00280752  00000-0  22952-2 0  9997","2 48886  97.6062 195.0351 0004045 289.2406  70.8418 15.69696815146290","2021-059H","48886","6737.901","91.737","362.492","357.041","0"
"GENERATED VIA SPACETRACK.ORG API","18 SPCS","48886","SPACEBEE-102","PAYLOAD","U","21059H","2024-02-11 22:27:24","607872","15.69999974","0.000412","97.6059","195.6587","289.4344","70.6472","0","999","14638","0.0022005","0.00272267","0","4185871","0 SPACEBEE-102","1 48886U 21059H   24042.93570148  .00272267  00000-0  22005-2 0  9997","2 48886  97.6059 195.6587 0004120 289.4344  70.6472 15.69999974146380","2021-059H","48886","6737.034","91.720","361.675","356.123","0"
"GENERATED VIA SPACETRACK.ORG API","18 SPCS","48886","SPACEBEE-102","PAYLOAD","U","21059H","2024-02-11 22:27:24","607872","15.69999974","0.000412","97.6059","195.6587","289.4344","70.6472","0","999","14638","0.0022005","0.00272267","0","4186050","0 SPACEBEE-102","1 48886U 21059H   24042.93570148  .00272267  00000-0  22005-2 0  9997","2 48886  97.6059 195.6587 0004120 289.4344  70.6472 15.69999974146380","2021-059H","48886","6737.034","91.720","361.675","356.123","0"
"GENERATED VIA SPACETRACK.ORG API","18 SPCS","48886","SPACEBEE-102","PAYLOAD","U","21059H","2024-02-12 09:09:48","899808","15.70271606","0.0004267","97.6061","196.1437","289.838","70.2422","0","999","14645","0.0022696","0.00284403","0","4186379","0 SPACEBEE-102","1 48886U 21059H   24043.38181597  .00284403  00000-0  22696-2 0  9994","2 48886  97.6061 196.1437 0004267 289.8380  70.2422 15.70271606146455","2021-059H","48886","6736.257","91.704","360.996","355.248","0"
"GENERATED VIA SPACETRACK.ORG API","18 SPCS","48886","SPACEBEE-102","PAYLOAD","U","21059H","2024-02-12 09:09:48","899808","15.70271606","0.0004267","97.6061","196.1437","289.838","70.2422","0","999","14645","0.0022696","0.00284403","0","4186491","0 SPACEBEE-102","1 48886U 21059H   24043.38181597  .00284403  00000-0  22696-2 0  9994","2 48886  97.6061 196.1437 0004267 289.8380  70.2422 15.70271606146455","2021-059H","48886","6736.257","91.704","360.996","355.248","0"
"GENERATED VIA SPACETRACK.ORG API","18 SPCS","48886","SPACEBEE-102","PAYLOAD","U","21059H","2024-02-12 21:23:51","886464","15.70556908","0.0004173","97.6058","196.6977","289.3787","70.7024","0","999","14653","0.0021944","0.00278023","0","4186778","0 SPACEBEE-102","1 48886U 21059H   24043.89157276  .00278023  00000-0  21944-2 0  9993","2 48886  97.6058 196.6977 0004173 289.3787  70.7024 15.70556908146530","2021-059H","48886","6735.441","91.687","360.117","354.496","0"
"GENERATED VIA SPACETRACK.ORG API","18 SPCS","48886","SPACEBEE-102","PAYLOAD","U","21059H","2024-02-13 09:37:46","809408","15.70852658","0.000432","97.6061","197.2522","291.1624","68.9176","0","999","14661","0.002267","0.00291234","0","4187299","0 SPACEBEE-102","1 48886U 21059H   24044.40123622  .00291234  00000-0  22670-2 0  9995","2 48886  97.6061 197.2522 0004320 291.1624  68.9176 15.70852658146619","2021-059H","48886","6734.596","91.670","359.370","353.552","0"
"GENERATED VIA SPACETRACK.ORG API","18 SPCS","48886","SPACEBEE-102","PAYLOAD","U","21059H","2024-02-13 09:37:46","809408","15.70852658","0.000432","97.6061","197.2522","291.1624","68.9176","0","999","14661","0.002267","0.00291234","0","4187441","0 SPACEBEE-102","1 48886U 21059H   24044.40123622  .00291234  00000-0  22670-2 0  9995","2 48886  97.6061 197.2522 0004320 291.1624  68.9176 15.70852658146619","2021-059H","48886","6734.596","91.670","359.370","353.552","0"
"GENERATED VIA SPACETRACK.ORG API","18 SPCS","48886","SPACEBEE-102","PAYLOAD","U","21059H","2024-02-13 21:51:33","279840","15.71171632","0.0004547","97.6061","197.8065","292.4625","67.6155","0","999","14669","0.0025613","0.00335216","0","4187767","0 SPACEBEE-102","1 48886U 21059H   24044.91080185  .00335216  00000-0  25613-2 0  9996","2 48886  97.6061 197.8065 0004547 292.4625  67.6155 15.71171632146691","2021-059H","48886","6733.684","91.651","358.611","352.488","0"
